start=new Date('2023-01-30T00:00:00.000Z').valueOf();
sats=[{"APOAPSIS":"540.629","REF_FRAME":"TEME","INCLINATION":"53.2179","SITE":"AFETR","FILE":"3765015","TIME_SYSTEM":"UTC","CENTER_NAME":"EARTH","MEAN_ELEMENT_THEORY":"SGP4","RA_OF_ASC_NODE":"159.2096","SEMIMAJOR_AXIS":"6917.884","REV_AT_EPOCH":"2744","OBJECT_ID":"2022-097AT","TLE_LINE2":"2 53429  53.2179 159.2096 0001272  76.6063 283.5071 15.08838672 27445","LAUNCH_DATE":"2022-08-10","NORAD_CAT_ID":"53429","EPOCH":"2023-01-29T17:48:40.309344","DECAY_DATE":null,"ARG_OF_PERICENTER":"76.6063","PERIAPSIS":"538.869","COUNTRY_CODE":"US","PERIOD":"95.438","MEAN_MOTION_DOT":"0.00000591","MEAN_MOTION":"15.08838672","BSTAR":"0.00005523500000","ELEMENT_SET_NO":"999","GP_ID":"223959781","ECCENTRICITY":"0.00012720","OBJECT_NAME":"STARLINK-4543","TLE_LINE1":"1 53429U 22097AT  23029.74213321  .00000591  00000-0  55235-4 0  9991","CLASSIFICATION_TYPE":"U","MEAN_ANOMALY":"283.5071","EPHEMERIS_TYPE":"0","OBJECT_TYPE":"PAYLOAD","RCS_SIZE":"LARGE","MEAN_MOTION_DDOT":"0.0000000000000"},{"OBJECT_TYPE":"PAYLOAD","RCS_SIZE":"LARGE","MEAN_MOTION_DDOT":"0.0000000000000","ECCENTRICITY":"0.00010770","TLE_LINE1":"1 53430U 22097AU  23029.73476399 -.00001085  00000-0 -50081-4 0  9993","OBJECT_NAME":"STARLINK-4538","MEAN_ANOMALY":"287.2929","EPHEMERIS_TYPE":"0","CLASSIFICATION_TYPE":"U","MEAN_MOTION":"15.08841560","BSTAR":"-0.00005008100000","GP_ID":"223960526","ELEMENT_SET_NO":"999","COUNTRY_CODE":"US","PERIOD":"95.437","MEAN_MOTION_DOT":"-0.00001085","DECAY_DATE":null,"PERIAPSIS":"538.996","ARG_OF_PERICENTER":"72.8181","TLE_LINE2":"2 53430  53.2187 159.1611 0001077  72.8181 287.2929 15.08841560 27421","OBJECT_ID":"2022-097AU","SEMIMAJOR_AXIS":"6917.876","REV_AT_EPOCH":"2742","NORAD_CAT_ID":"53430","LAUNCH_DATE":"2022-08-10","EPOCH":"2023-01-29T17:38:03.608736","SITE":"AFETR","FILE":"3765015","RA_OF_ASC_NODE":"159.1611","TIME_SYSTEM":"UTC","MEAN_ELEMENT_THEORY":"SGP4","CENTER_NAME":"EARTH","REF_FRAME":"TEME","INCLINATION":"53.2187","APOAPSIS":"540.486"},{"MEAN_MOTION_DOT":"0.00000492","PERIOD":"95.438","COUNTRY_CODE":"US","GP_ID":"223959284","ELEMENT_SET_NO":"999","MEAN_MOTION":"15.08837818","BSTAR":"0.00004899700000","CLASSIFICATION_TYPE":"U","MEAN_ANOMALY":"278.1268","EPHEMERIS_TYPE":"0","OBJECT_NAME":"STARLINK-4548","TLE_LINE1":"1 53431U 22097AV  23029.74309064  .00000492  00000-0  48997-4 0  9991","ECCENTRICITY":"0.00011750","MEAN_MOTION_DDOT":"0.0000000000000","RCS_SIZE":"LARGE","OBJECT_TYPE":"PAYLOAD","APOAPSIS":"540.565","INCLINATION":"53.2182","REF_FRAME":"TEME","CENTER_NAME":"EARTH","TIME_SYSTEM":"UTC","MEAN_ELEMENT_THEORY":"SGP4","RA_OF_ASC_NODE":"159.2145","FILE":"3765015","SITE":"AFETR","EPOCH":"2023-01-29T17:50:03.031296","LAUNCH_DATE":"2022-08-10","NORAD_CAT_ID":"53431","SEMIMAJOR_AXIS":"6917.887","REV_AT_EPOCH":"2744","TLE_LINE2":"2 53431  53.2182 159.2145 0001175  81.9858 278.1268 15.08837818 27449","OBJECT_ID":"2022-097AV","ARG_OF_PERICENTER":"81.9858","PERIAPSIS":"538.939","DECAY_DATE":null},{"TLE_LINE1":"1 53432U 22097AW  23029.77520961 -.00000332  00000-0 -28030-5 0  9998","OBJECT_NAME":"STARLINK-4557","MEAN_ANOMALY":"280.8284","EPHEMERIS_TYPE":"0","CLASSIFICATION_TYPE":"U","ECCENTRICITY":"0.00010940","MEAN_MOTION_DDOT":"0.0000000000000","OBJECT_TYPE":"PAYLOAD","RCS_SIZE":"LARGE","PERIOD":"95.438","MEAN_MOTION_DOT":"-0.00000332","COUNTRY_CODE":"US","GP_ID":"223959532","ELEMENT_SET_NO":"999","BSTAR":"-0.00000280300000","MEAN_MOTION":"15.08837767","EPOCH":"2023-01-29T18:36:18.110304","TLE_LINE2":"2 53432  53.2163 158.7180 0001094  79.2831 280.8284 15.08837767 27455","OBJECT_ID":"2022-097AW","SEMIMAJOR_AXIS":"6917.887","REV_AT_EPOCH":"2745","NORAD_CAT_ID":"53432","LAUNCH_DATE":"2022-08-10","PERIAPSIS":"538.995","ARG_OF_PERICENTER":"79.2831","DECAY_DATE":null,"REF_FRAME":"TEME","INCLINATION":"53.2163","APOAPSIS":"540.509","RA_OF_ASC_NODE":"158.7180","TIME_SYSTEM":"UTC","CENTER_NAME":"EARTH","MEAN_ELEMENT_THEORY":"SGP4","SITE":"AFETR","FILE":"3765015"},{"BSTAR":"0.00002022000000","MEAN_MOTION":"15.08836794","GP_ID":"223960278","ELEMENT_SET_NO":"999","COUNTRY_CODE":"US","MEAN_MOTION_DOT":"0.00000034","PERIOD":"95.438","RCS_SIZE":"LARGE","OBJECT_TYPE":"PAYLOAD","MEAN_MOTION_DDOT":"0.0000000000000","ECCENTRICITY":"0.00010000","CLASSIFICATION_TYPE":"U","EPHEMERIS_TYPE":"0","MEAN_ANOMALY":"257.7529","OBJECT_NAME":"STARLINK-4549","TLE_LINE1":"1 53433U 22097AX  23029.73107883  .00000034  00000-0  20220-4 0  9998","FILE":"3765015","SITE":"AFETR","TIME_SYSTEM":"UTC","CENTER_NAME":"EARTH","MEAN_ELEMENT_THEORY":"SGP4","RA_OF_ASC_NODE":"159.1423","APOAPSIS":"540.447","REF_FRAME":"TEME","INCLINATION":"53.2186","DECAY_DATE":null,"ARG_OF_PERICENTER":"102.3576","PERIAPSIS":"539.063","LAUNCH_DATE":"2022-08-10","NORAD_CAT_ID":"53433","SEMIMAJOR_AXIS":"6917.890","REV_AT_EPOCH":"2742","TLE_LINE2":"2 53433  53.2186 159.1423 0001000 102.3576 257.7529 15.08836794 27428","OBJECT_ID":"2022-097AX","EPOCH":"2023-01-29T17:32:45.210912"},{"REV_AT_EPOCH":"2743","SEMIMAJOR_AXIS":"6917.886","TLE_LINE2":"2 53434  53.2164 159.5898 0001167  85.8686 274.2440 15.08838230 27430","OBJECT_ID":"2022-097AY","LAUNCH_DATE":"2022-08-10","NORAD_CAT_ID":"53434","EPOCH":"2023-01-29T13:44:50.483328","DECAY_DATE":null,"PERIAPSIS":"538.943","ARG_OF_PERICENTER":"85.8686","APOAPSIS":"540.558","REF_FRAME":"TEME","INCLINATION":"53.2164","SITE":"AFETR","FILE":"3765015","TIME_SYSTEM":"UTC","MEAN_ELEMENT_THEORY":"SGP4","CENTER_NAME":"EARTH","RA_OF_ASC_NODE":"159.5898","ECCENTRICITY":"0.00011670","OBJECT_NAME":"STARLINK-4498","TLE_LINE1":"1 53434U 22097AY  23029.57280652  .00007133  00000-0  46580-3 0  9990","CLASSIFICATION_TYPE":"U","MEAN_ANOMALY":"274.2440","EPHEMERIS_TYPE":"0","OBJECT_TYPE":"PAYLOAD","RCS_SIZE":"LARGE","MEAN_MOTION_DDOT":"0.0000000000000","COUNTRY_CODE":"US","PERIOD":"95.438","MEAN_MOTION_DOT":"0.00007133","BSTAR":"0.00046580000000","MEAN_MOTION":"15.08838230","ELEMENT_SET_NO":"999","GP_ID":"223960030"},{"NORAD_CAT_ID":"53435","LAUNCH_DATE":"2022-08-10","TLE_LINE2":"2 53435  53.2174 158.7246 0001215  99.3613 260.7517 15.08819284 27437","OBJECT_ID":"2022-097AZ","REV_AT_EPOCH":"2743","SEMIMAJOR_AXIS":"6917.944","EPOCH":"2023-01-29T18:37:43.130496","DECAY_DATE":null,"PERIAPSIS":"538.968","ARG_OF_PERICENTER":"99.3613","INCLINATION":"53.2174","REF_FRAME":"TEME","APOAPSIS":"540.649","FILE":"3765015","SITE":"AFETR","RA_OF_ASC_NODE":"158.7246","TIME_SYSTEM":"UTC","MEAN_ELEMENT_THEORY":"SGP4","CENTER_NAME":"EARTH","ECCENTRICITY":"0.00012150","MEAN_ANOMALY":"260.7517","EPHEMERIS_TYPE":"0","CLASSIFICATION_TYPE":"U","TLE_LINE1":"1 53435U 22097AZ  23029.77619364 -.00001752  00000-0 -92073-4 0  9991","OBJECT_NAME":"STARLINK-4542","RCS_SIZE":"LARGE","OBJECT_TYPE":"PAYLOAD","MEAN_MOTION_DDOT":"0.0000000000000","COUNTRY_CODE":"US","MEAN_MOTION_DOT":"-0.00001752","PERIOD":"95.439","BSTAR":"-0.00009207300000","MEAN_MOTION":"15.08819284","GP_ID":"223958787","ELEMENT_SET_NO":"999"},{"PERIAPSIS":"539.063","ARG_OF_PERICENTER":"83.2317","DECAY_DATE":null,"EPOCH":"2023-01-29T15:14:55.304448","REV_AT_EPOCH":"2743","SEMIMAJOR_AXIS":"6917.887","TLE_LINE2":"2 53436  53.2171 159.2669 0000996  83.2317 276.8788 15.08837804 27434","OBJECT_ID":"2022-097BA","LAUNCH_DATE":"2022-08-10","NORAD_CAT_ID":"53436","MEAN_ELEMENT_THEORY":"SGP4","TIME_SYSTEM":"UTC","CENTER_NAME":"EARTH","RA_OF_ASC_NODE":"159.2669","SITE":"AFETR","FILE":"3765015","APOAPSIS":"540.441","INCLINATION":"53.2171","REF_FRAME":"TEME","MEAN_MOTION_DDOT":"0.0000000000000","OBJECT_TYPE":"PAYLOAD","RCS_SIZE":"LARGE","OBJECT_NAME":"STARLINK-4527","TLE_LINE1":"1 53436U 22097BA  23029.63536232 -.00000834  00000-0 -34320-4 0  9990","CLASSIFICATION_TYPE":"U","EPHEMERIS_TYPE":"0","MEAN_ANOMALY":"276.8788","ECCENTRICITY":"0.00009960","ELEMENT_SET_NO":"999","GP_ID":"223959036","MEAN_MOTION":"15.08837804","BSTAR":"-0.00003432000000","PERIOD":"95.438","MEAN_MOTION_DOT":"-0.00000834","COUNTRY_CODE":"US"},{"MEAN_MOTION":"15.08836691","BSTAR":"0.00001686400000","ELEMENT_SET_NO":"999","GP_ID":"223959782","COUNTRY_CODE":"US","PERIOD":"95.438","MEAN_MOTION_DOT":"-0.00000020","OBJECT_TYPE":"PAYLOAD","RCS_SIZE":"LARGE","MEAN_MOTION_DDOT":"0.0000000000000","ECCENTRICITY":"0.00014520","TLE_LINE1":"1 53438U 22097BC  23029.63167719 -.00000020  00000-0  16864-4 0  9991","OBJECT_NAME":"STARLINK-4526","EPHEMERIS_TYPE":"0","MEAN_ANOMALY":"298.4326","CLASSIFICATION_TYPE":"U","SITE":"AFETR","FILE":"3765015","RA_OF_ASC_NODE":"159.2492","MEAN_ELEMENT_THEORY":"SGP4","TIME_SYSTEM":"UTC","CENTER_NAME":"EARTH","INCLINATION":"53.2170","REF_FRAME":"TEME","APOAPSIS":"540.760","DECAY_DATE":null,"ARG_OF_PERICENTER":"61.6812","PERIAPSIS":"538.751","TLE_LINE2":"2 53438  53.2170 159.2492 0001452  61.6812 298.4326 15.08836691 27449","OBJECT_ID":"2022-097BC","REV_AT_EPOCH":"2744","SEMIMAJOR_AXIS":"6917.891","NORAD_CAT_ID":"53438","LAUNCH_DATE":"2022-08-10","EPOCH":"2023-01-29T15:09:36.909216"},{"RCS_SIZE":"LARGE","OBJECT_TYPE":"PAYLOAD","MEAN_MOTION_DDOT":"0.0000000000000","ECCENTRICITY":"0.00014330","CLASSIFICATION_TYPE":"U","EPHEMERIS_TYPE":"0","MEAN_ANOMALY":"280.0632","OBJECT_NAME":"STARLINK-4519","TLE_LINE1":"1 53439U 22097BD  23029.62799364 -.00000875  00000-0 -36926-4 0  9998","MEAN_MOTION":"15.08834799","BSTAR":"-0.00003692600000","ELEMENT_SET_NO":"999","GP_ID":"223960527","COUNTRY_CODE":"US","MEAN_MOTION_DOT":"-0.00000875","PERIOD":"95.438","DECAY_DATE":null,"ARG_OF_PERICENTER":"80.0522","PERIAPSIS":"538.770","LAUNCH_DATE":"2022-08-10","NORAD_CAT_ID":"53439","REV_AT_EPOCH":"2744","SEMIMAJOR_AXIS":"6917.896","TLE_LINE2":"2 53439  53.2174 159.2185 0001433  80.0522 280.0632 15.08834799 27449","OBJECT_ID":"2022-097BD","EPOCH":"2023-01-29T15:04:18.650496","FILE":"3765015","SITE":"AFETR","CENTER_NAME":"EARTH","TIME_SYSTEM":"UTC","MEAN_ELEMENT_THEORY":"SGP4","RA_OF_ASC_NODE":"159.2185","APOAPSIS":"540.753","INCLINATION":"53.2174","REF_FRAME":"TEME"}];
